ONEWEB-0387             
1 49313U 21090AL  26196.24619304  .00000089  00000+0  18785-3 0  9993
2 49313  87.9176 268.8596 0001993  88.3503 271.7859 13.20769990233523
ONEWEB-0388             
1 49314U 21090AM  26196.83913393  .00000044  00000+0  77191-4 0  9992
2 49314  87.9185 299.2637 0001864  99.9037 260.2306 13.19727081230198
ONEWEB-0389             
1 50469U 21132A   26196.90257777  .00000024  00000+0  27896-4 0  9992
2 50469  87.9144   0.1551 0001710  82.5296 277.6030 13.17650132221865
ONEWEB-0390             
1 50470U 21132B   26196.90426482  .00000014  00000+0  28665-5 0  9990
2 50470  87.9145   0.1557 0002075  91.1613 268.9756 13.17650325221860
ONEWEB-0391             
1 50471U 21132C   26196.90595246  .00000062  00000+0  12741-3 0  9995
2 50471  87.9146   0.1653 0001997  68.1029 292.0315 13.17650222221861
ONEWEB-0392             
1 50472U 21132D   26196.93633074  .00000005  00000+0 -20068-4 0  9991
2 50472  87.9155   0.1297 0001754  81.2488 278.8842 13.17651101221901
ONEWEB-0393             
1 50473U 21132E   26196.91187323 -.00000030  00000+0 -10949-3 0  9996
2 50473  87.9143   0.1495 0001799  88.4753 271.6585 13.17647656221895
ONEWEB-0394             
1 50474U 21132F   26196.85530428  .00000070  00000+0  14450-3 0  9991
2 50474  87.9196 329.7418 0001742  97.5224 262.6106 13.18684965225372
ONEWEB-0395             
1 50475U 21132G   26196.93092368  .00000151  00000+0  39056-3 0  9996
2 50475  87.8884  15.3425 0002009  84.8175 275.3182 13.11419384219487
ONEWEB-0396             
1 50476U 21132H   26196.92444257 -.00000008  00000+0 -52661-4 0  9995
2 50476  87.9198 329.7409 0001745  95.7869 264.3462 13.18686884225426
ONEWEB-0397             
1 50477U 21132J   26196.86373696 -.00000016  00000+0 -73175-4 0  9999
2 50477  87.9198 329.7531 0001637  97.7860 262.3458 13.18686575225392
ONEWEB-0398             
1 50478U 21132K   26196.89870904 -.00000343  00000+0 -10032-2 0  9991
2 50478  87.8890  15.3419 0002161  88.7097 271.4279 13.11415375219373
ONEWEB-0399             
1 50479U 21132L   26196.96145212  .00000186  00000+0  49022-3 0  9992
2 50479  87.8892  15.3405 0001514  77.9707 282.1591 13.11415025219378
ONEWEB-0400             
1 50480U 21132M   26196.91769058  .00000001  00000+0 -31339-4 0  9999
2 50480  87.9199 329.7321 0002050  97.0509 263.0857 13.18684922225392
ONEWEB-0401             
1 50481U 21132N   26196.88734792 -.00000049  00000+0 -15601-3 0  9999
2 50481  87.9201 329.7358 0001772 105.4551 254.6777 13.18686314225392
ONEWEB-0402             
1 50482U 21132P   26196.85024184  .00000038  00000+0  64772-4 0  9994
2 50482  87.9196 329.7319 0001582 110.3601 249.7701 13.18687529225417
